MEAN_MOTION;ECCENTRICITY;INCLINATION;RA_OF_ASC_NODE;ARG_OF_PERICENTER;MEAN_ANOMALY;BSTAR;MEAN_MOTION_DOT;MEAN_MOTION_DDOT;TYPE
12.62264195;5.78E-5;51.9666;113.5926;118.643;347.5741;1.7048E-5;-1.01E-6;0;Globalstar
12.62264232;5.49E-5;51.9666;110.6771;117.9209;18.5368;5.7369E-5;-9.3E-7;0;Globalstar
12.62264257;5.19E-5;51.9666;107.5304;117.024;34.869;8.7004E-5;-8.8E-7;0;Globalstar
12.62264293;4.95E-5;51.9666;104.6712;115.6831;342.624;0.000124;-8.2E-7;0;Globalstar
12.62264322;4.79E-5;51.9667;103.0251;114.7886;279.7258;0.0001341;-8.0E-7;0;Globalstar
12.62264323;4.65E-5;51.9667;101.7623;113.1416;5.7273;0.00013539;-8.0E-7;0;Globalstar
12.62264333;4.51E-5;51.9668;98.8748;111.3968;356.2233;0.00011662;-8.3E-7;0;Globalstar
12.62264341;4.45E-5;51.9668;98.6134;110.7856;26.7531;0.00011651;-8.3E-7;0;Globalstar
12.62264342;4.37E-5;51.9668;95.7524;109.2378;337.5457;7.4712E-5;-9.0E-7;0;Globalstar
12.62264335;4.31E-5;51.9669;95.248;108.4248;11.0103;5.0239E-5;-9.5E-7;0;Globalstar
12.62264341;4.2E-5;51.9669;92.6083;105.6477;352.7636;2.0561E-5;-1.0E-6;0;Globalstar
12.62264355;4.1E-5;51.967;90.4496;103.3175;336.252;-7.1955E-6;-1.05E-6;0;Globalstar
12.62264361;4.05E-5;51.9671;87.556;99.9022;337.4016;-3.6796E-5;-1.1E-6;0;Globalstar
12.62264327;4.0E-5;51.9671;86.5504;97.6004;40.2419;-5.4315E-5;-1.14E-6;0;Globalstar
12.62264307;3.99E-5;51.9671;84.4179;95.2445;344.6769;-8.1881E-5;-1.18E-6;0;Globalstar
12.62264358;4.01E-5;51.9672;83.1479;96.55;78.3236;-6.0448E-5;-1.15E-6;0;Globalstar
12.62264344;4.03E-5;51.9673;80.5186;93.7355;44.4838;-4.7587E-5;-1.12E-6;0;Globalstar
12.62264296;4.15E-5;51.9674;77.3753;88.5761;60.0437;-5.3203E-5;-1.13E-6;0;Globalstar
12.6226429;4.29E-5;51.9676;74.487;85.2259;53.3058;-2.1048E-5;-1.08E-6;0;Globalstar
12.62264272;4.41E-5;51.9677;72.0966;82.7585;22.7384;-1.4239E-5;-1.06E-6;0;Globalstar
12.62264269;4.48E-5;51.9678;71.3438;81.7721;67.1126;-1.0426E-5;-1.06E-6;0;Globalstar
12.62264266;4.77E-5;51.9679;68.4545;78.8145;61.6765;1.2142E-5;-1.02E-6;0;Globalstar
12.62264269;4.94E-5;51.9682;65.3123;77.989;71.4103;-4.267E-6;-1.05E-6;0;Globalstar
12.62264254;5.17E-5;51.9684;62.2;76.1613;37.6009;-2.6822E-5;-1.09E-6;0;Globalstar
12.62264263;5.27E-5;51.9684;60.7875;76.1779;345.4449;-3.4534E-5;-1.1E-6;0;Globalstar
12.62264276;5.45E-5;51.9685;59.0599;74.6465;45.0572;-4.121E-5;-1.11E-6;0;Globalstar
12.62264262;5.53E-5;51.9686;57.903;74.982;331.2269;-5.1589E-5;-1.13E-6;0;Globalstar
12.6226425;5.86E-5;51.9687;55.0147;74.5577;321.8523;-6.7369E-5;-1.16E-6;0;Globalstar
12.62264252;5.91E-5;51.9687;54.7543;74.6805;350.3583;-7.2487E-5;-1.17E-6;0;Globalstar
12.62264238;6.21E-5;51.9689;51.875;74.3689;327.4217;-7.4505E-5;-1.17E-6;0;Globalstar
12.62264236;6.21E-5;51.9689;51.6122;74.7741;359.185;-8.2539E-5;-1.19E-6;0;Globalstar
12.62264241;6.41E-5;51.969;49.7;74.4728;333.0799;-6.8711E-5;-1.16E-6;0;Globalstar
12.62264254;6.43E-5;51.969;48.723;74.8447;350.5453;-6.1828E-5;-1.15E-6;0;Globalstar
12.62264256;6.53E-5;51.9691;47.9751;74.6212;26.959;-5.592E-5;-1.14E-6;0;Globalstar
12.62264261;6.6E-5;51.9691;47.2189;74.5599;75.4554;-4.3261E-5;-1.12E-6;0;Globalstar
12.62264243;6.76E-5;51.9692;45.6121;75.1469;312.7495;-5.2613E-5;-1.13E-6;0;Globalstar
12.62264249;7.0E-5;51.9693;42.9214;75.2407;8.0229;-2.668E-5;-1.09E-6;0;Globalstar
12.62264252;7.02E-5;51.9693;42.6676;75.512;26.4061;-3.1777E-5;-1.09E-6;0;Globalstar
12.62264247;7.27E-5;51.9695;39.8103;76.242;329.6828;-1.8988E-6;-1.04E-6;0;Globalstar
12.6226425;7.32E-5;51.9695;39.5502;76.4476;357.5807;-7.0295E-6;-1.05E-6;0;Globalstar
12.62264259;7.63E-5;51.9697;36.4045;77.6544;10.8335;9.1465E-6;-1.02E-6;0;Globalstar
12.62264273;7.74E-5;51.9697;35.6414;77.6734;69.5895;3.4559E-5;-9.8E-7;0;Globalstar
12.62264288;7.76E-5;51.9697;35.4162;77.632;45.782;4.8403E-5;-9.5E-7;0;Globalstar
12.62264311;8.32E-5;51.9699;30.629;79.0079;348.5439;4.8953E-5;-9.5E-7;0;Globalstar
12.62264293;8.34E-5;51.97;30.3752;79.1458;7.2506;2.9247E-5;-9.9E-7;0;Globalstar
12.62264331;8.68E-5;51.97;27.4875;80.3409;355.4946;3.9166E-5;-9.7E-7;0;Globalstar
12.62264326;8.7E-5;51.97;27.2449;80.5261;357.3489;3.3835E-5;-9.8E-7;0;Globalstar
12.62264389;9.01E-5;51.9701;24.3754;81.8541;318.3108;5.2596E-5;-9.4E-7;0;Globalstar
12.62264388;9.08E-5;51.9701;23.6153;81.9845;12.5846;6.0269E-5;-9.3E-7;0;Globalstar
12.62264429;9.22E-5;51.9701;21.214;83.1825;354.9994;6.3053E-5;-9.2E-7;0;Globalstar
12.62264461;9.26E-5;51.9701;20.4326;83.3468;80.8885;8.5549E-5;-8.8E-7;0;Globalstar
12.62264498;9.44E-5;51.9701;18.077;83.862;355.8808;8.8585E-5;-8.8E-7;0;Globalstar
12.62264512;9.68E-5;51.97;15.1703;84.9532;12.4951;9.0788E-5;-8.8E-7;0;Globalstar
12.62264642;0.0001009;51.9701;12.0263;86.7904;22.5755;0.0001592;-7.5E-7;0;Globalstar
12.6226467;0.0001015;51.9701;11.0298;87.0597;69.3487;0.0001727;-7.3E-7;0;Globalstar
12.62264734;0.0001043;51.97;8.1699;88.5905;15.7509;0.00020135;-6.8E-7;0;Globalstar
12.62264795;0.0001063;51.9701;6.0145;90.0242;350.8052;0.00021929;-6.4E-7;0;Globalstar
12.62264802;0.0001067;51.97;4.9977;90.1879;68.0372;0.00021255;-6.6E-7;0;Globalstar
12.62264848;0.0001081;51.97;3.1214;91.5576;346.804;0.00021799;-6.5E-7;0;Globalstar
12.6226494;0.0001108;51.97;359.9835;93.1676;347.9819;0.00022952;-6.3E-7;0;Globalstar
12.62264998;0.000113;51.9699;357.0904;94.7446;343.8834;0.00020086;-6.8E-7;0;Globalstar
12.62265025;0.000114;51.9699;356.0762;95.2229;56.9808;0.00020421;-6.7E-7;0;Globalstar
12.62265059;0.0001151;51.9699;353.9522;96.5603;345.4665;0.00017967;-7.2E-7;0;Globalstar
12.62265075;0.0001156;51.9699;353.4273;96.6608;48.6694;0.00018851;-7.0E-7;0;Globalstar
12.62265128;0.0001175;51.9698;350.8218;98.3559;335.3505;0.00017503;-7.2E-7;0;Globalstar
12.62265136;0.0001181;51.9698;350.0452;98.6779;53.8991;0.00016647;-7.4E-7;0;Globalstar
12.62265158;0.0001198;51.9696;347.6668;100.4257;1.5529;0.00015535;-7.6E-7;0;Globalstar
12.62265168;0.0001214;51.9695;345.0285;102.3343;336.7043;0.0001219;-8.2E-7;0;Globalstar
12.62265161;0.0001216;51.9695;344.7901;102.4835;332.3485;0.00012165;-8.2E-7;0;Globalstar
12.62265194;0.0001225;51.9693;341.8893;104.2601;339.2551;0.00013035;-8.0E-7;0;Globalstar
12.62265183;0.0001226;51.9693;341.6355;104.4012;357.9154;0.00012465;-8.1E-7;0;Globalstar
12.62265248;0.000124;51.9691;338.7696;106.3559;312.6688;0.00015392;-7.6E-7;0;Globalstar
12.62265253;0.0001242;51.9691;337.9835;106.7668;45.3319;0.00015552;-7.6E-7;0;Globalstar
12.62265285;0.0001255;51.969;335.6042;108.6071;353.9396;0.00016737;-7.4E-7;0;Globalstar
12.6226529;0.0001256;51.969;333.9569;109.1613;291.7235;0.00016258;-7.5E-7;0;Globalstar
12.62265297;0.0001261;51.9689;332.9663;110.0219;328.9619;0.00015024;-7.7E-7;0;Globalstar
12.6226532;0.0001268;51.9687;329.5727;112.3442;350.7338;0.00014095;-7.9E-7;0;Globalstar
12.62265342;0.0001268;51.9687;327.7026;113.4219;260.2919;0.00013514;-8.0E-7;0;Globalstar
12.6226534;0.0001271;51.9687;326.935;114.0075;325.2278;0.00011295;-8.4E-7;0;Globalstar
12.62265356;0.0001272;51.9686;326.1593;114.3565;42.4011;0.0001251;-8.1E-7;0;Globalstar
12.62265354;0.0001274;51.9686;325.2659;115.1337;294.7093;9.9591E-5;-8.6E-7;0;Globalstar
12.62265381;0.0001283;51.9685;323.2705;116.7087;30.7874;9.7107E-5;-8.6E-7;0;Globalstar
12.62265403;0.0001289;51.9684;321.416;118.3589;276.5213;7.3925E-5;-9.1E-7;0;Globalstar
12.62265436;0.0001292;51.9684;320.4141;119.3133;330.6984;8.4084E-5;-8.9E-7;0;Globalstar
12.6226547;0.0001296;51.9683;317.5102;121.4345;341.8788;7.4533E-5;-9.0E-7;0;Globalstar
12.62265478;0.0001305;51.9682;314.3822;124.0512;326.8367;4.9904E-5;-9.5E-7;0;Globalstar
12.62265495;0.0001307;51.9682;314.1014;124.302;25.6465;5.9944E-5;-9.3E-7;0;Globalstar
12.62265492;0.0001311;51.9681;311.208;126.6433;20.8134;4.9213E-5;-9.5E-7;0;Globalstar
12.62265487;0.0001311;51.9681;310.9732;126.9088;10.9798;4.3116E-5;-9.6E-7;0;Globalstar
12.622655;0.0001313;51.968;307.8282;129.7494;21.1943;4.5507E-5;-9.6E-7;0;Globalstar
12.62265501;0.0001315;51.9679;305.9482;131.5317;304.7588;4.1295E-5;-9.6E-7;0;Globalstar
12.62265498;0.0001306;51.9679;303.3397;133.2191;235.4949;5.7785E-5;-9.3E-7;0;Globalstar
12.6226553;0.0001304;51.9679;302.0474;134.1143;2.9566;9.1701E-5;-8.7E-7;0;Globalstar
12.62265544;0.0001302;51.9679;299.9167;135.9968;300.4949;9.0978E-5;-8.7E-7;0;Globalstar
12.62265558;0.0001301;51.9679;299.415;136.3762;328.719;0.000109;-8.4E-7;0;Globalstar
12.62265563;0.0001299;51.968;299.17;136.1986;334.6425;0.00011487;-8.3E-7;0;Globalstar
12.62265585;0.0001296;51.968;297.0541;138.0767;250.0102;0.00010167;-8.6E-7;0;Globalstar
12.622656;0.0001295;51.968;296.2875;138.8637;313.172;0.00011822;-8.3E-7;0;Globalstar
12.62265598;0.0001292;51.968;296.0187;138.9598;354.2703;0.00011635;-8.3E-7;0;Globalstar
12.62265607;0.0001281;51.968;293.1383;141.0658;330.2746;9.5483E-5;-8.7E-7;0;Globalstar
12.62265619;0.0001272;51.968;289.9881;143.9705;348.3615;5.1821E-5;-9.4E-7;0;Globalstar
12.62265619;0.0001269;51.968;289.7355;144.1379;5.0228;4.4853E-5;-9.6E-7;0;Globalstar
12.62265633;0.0001263;51.968;286.8462;147.0129;353.762;1.4643E-5;-1.01E-6;0;Globalstar
12.62265632;0.0001261;51.9679;286.5917;147.1627;13.3206;4.5951E-6;-1.03E-6;0;Globalstar
12.62265633;0.0001258;51.9679;283.9565;150.1018;342.7359;-2.0878E-5;-1.08E-6;0;Globalstar
12.62265621;0.0001251;51.9679;281.8228;151.925;284.9735;-4.6878E-5;-1.12E-6;0;Globalstar
12.62265633;0.0001245;51.9678;280.8148;152.8192;348.3035;-2.6839E-5;-1.09E-6;0;Globalstar
12.62265627;0.0001234;51.9677;277.9252;155.5377;337.5656;-1.9001E-5;-1.07E-6;0;Globalstar
12.62265623;0.0001221;51.9677;274.7834;158.6307;342.8303;1.1182E-7;-1.04E-6;0;Globalstar
12.62265623;0.0001221;51.9677;274.7834;158.6307;342.8303;1.1182E-7;-1.04E-6;0;Globalstar
12.62265617;0.0001216;51.9677;272.6535;160.9585;278.7094;7.2993E-6;-1.02E-6;0;Globalstar
12.62265643;0.0001208;51.9677;271.6414;161.7577;348.2266;4.5408E-5;-9.6E-7;0;Globalstar
12.62265643;0.0001208;51.9677;271.6414;161.7577;348.2266;4.5408E-5;-9.6E-7;0;Globalstar
12.62265682;0.0001197;51.9677;268.752;164.5486;337.2408;0.0001038;-8.5E-7;0;Globalstar
12.6226572;0.0001194;51.9677;266.8908;166.6685;232.463;0.000123;-8.2E-7;0;Globalstar
